IRIDIUM 921             
1 24873U 97034E   24293.33461349  .00162643  00000+0  24199-2 0  9998
2 24873  86.3775 226.0517 0009569  99.3204 260.9140 15.54539593494638
IRIDIUM 26              
1 24903U 97043A   24293.31796901  .00002163  00000+0  72795-3 0  9991
2 24903  86.4015 211.6683 0002349  88.0952 272.0514 14.36711723422623
IRIDIUM 22              
1 24907U 97043E   24293.33100934  .00001917  00000+0  65934-3 0  9995
2 24907  86.4014 214.9943 0002355  82.1100 278.0364 14.35572049422206
DUMMY MASS 1            
1 24925U 97048A   24292.86551494  .00001807  00000+0  20120-3 0  9994
2 24925  86.3331 246.8027 0004293 290.4882  69.5882 14.86524899469270
DUMMY MASS 2            
1 24926U 97048B   24293.39362084  .00002002  00000+0  22450-3 0  9995
2 24926  86.3331 248.1233 0005284 302.8603  57.2112 14.86283001469373
IRIDIUM 29              
1 24944U 97051A   24292.73762570  .00002002  00000+0  68251-3 0  9999
2 24944  86.3944 245.0699 0002321  80.5480 279.5979 14.36018458418615
IRIDIUM 33              
1 24946U 97051C   24293.16218990  .00001520  00000+0  53134-3 0  9999
2 24946  86.3862 244.1383 0009323 132.5613 227.6371 14.34584046418193
IRIDIUM 28              
1 24948U 97051E   24293.14701345  .00001993  00000+0  66652-3 0  9993
2 24948  86.3957 242.5501 0002603  94.3334 265.8161 14.36967856419292
